NORAD_CAT_ID,OBJECT_NAME,OBJECT_TYPE,EPOCH,MEAN_MOTION,ECCENTRICITY,INCLINATION,RA_OF_ASC_NODE,ARG_OF_PERICENTER,MEAN_ANOMALY,BSTAR,MEAN_MOTION_DOT,MEAN_MOTION_DDOT,TLE_LINE0,TLE_LINE1,TLE_LINE2,SEMIMAJOR_AXIS,PERIOD,APOGEE,PERIGEE,DECAYED
55751.0,STARLINK-5577,PAYLOAD,2024-06-01 11:47:44,14.98330202,0.0002075,70.0019,73.8434,273.8119,86.2803,2.5583e-05,2.12e-06,0.0,0 STARLINK-5577,1 55751U 23028L   24153.49148289  .00000212  00000-0  25583-4 0  9990,2 55751  70.0019  73.8434 0002075 273.8119  86.2803 14.98330202 69246,6950.192,96.107,573.499,570.615,0.0
55751.0,STARLINK-5577,PAYLOAD,2024-06-02 11:49:44,14.98329653,0.0002641,70.0004,71.3203,265.1444,94.9414,-9.1622e-06,-2.02e-06,0.0,0 STARLINK-5577,1 55751U 23028L   24154.49288185 -.00000202  00000-0 -91622-5 0  9990,2 55751  70.0004  71.3203 0002641 265.1444  94.9414 14.98329653 69399,6950.194,96.107,573.895,570.223,0.0
55751.0,STARLINK-5577,PAYLOAD,2024-06-02 18:14:17,14.98329617,0.0002697,70.0002,70.6469,264.9977,95.0874,2.6063e-05,2.18e-06,0.0,0 STARLINK-5577,1 55751U 23028L   24154.75992157  .00000218  00000-0  26063-4 0  9991,2 55751  70.0002  70.6469 0002697 264.9977  95.0874 14.98329617 69439,6950.194,96.107,573.934,570.185,0.0
55751.0,STARLINK-5577,PAYLOAD,2024-06-03 11:51:45,14.98335922,0.0002974,69.9996,68.7935,267.349,92.7329,5.046e-05,5.09e-06,0.0,0 STARLINK-5577,1 55751U 23028L   24155.49427625  .00000509  00000-0  50460-4 0  9997,2 55751  69.9996  68.7935 0002974 267.3490  92.7329 14.98335922 69546,6950.175,96.107,574.107,569.973,0.0
55751.0,STARLINK-5577,PAYLOAD,2024-06-04 11:53:46,14.98332788,0.0002824,70.0002,66.2681,266.5541,93.5295,0.000151,1.709e-05,0.0,0 STARLINK-5577,1 55751U 23028L   24156.49567653  .00001709  00000-0  15100-3 0  9998,2 55751  70.0002  66.2681 0002824 266.5541  93.5295 14.98332788 69694,6950.184,96.107,574.012,570.087,0.0
55751.0,STARLINK-5577,PAYLOAD,2024-06-04 23:06:42,14.9833236,0.0002887,70.0006,65.0896,267.8055,92.2773,0.00013781,1.552e-05,0.0,0 STARLINK-5577,1 55751U 23028L   24156.96299585  .00001552  00000-0  13781-3 0  9995,2 55751  70.0006  65.0896 0002887 267.8055  92.2773 14.98332360 69767,6950.186,96.107,574.057,570.044,0.0
55751.0,STARLINK-5577,PAYLOAD,2024-06-05 03:55:06,14.98334359,0.0002881,70.001,64.5858,270.1863,89.8966,6.802e-05,7.19e-06,0.0,0 STARLINK-5577,1 55751U 23028L   24157.16327520  .00000719  00000-0  68020-4 0  9990,2 55751  70.0010  64.5858 0002881 270.1863  89.8966 14.98334359 69791,6950.179,96.107,574.047,570.042,0.0
55751.0,STARLINK-5577,PAYLOAD,2024-06-05 18:20:20,14.98323093,0.0002885,70.0028,63.071,270.5607,89.5222,0.00011477,1.276e-05,0.0,0 STARLINK-5577,1 55751U 23028L   24157.76412167  .00001276  00000-0  11477-3 0  9990,2 55751  70.0028  63.0710 0002885 270.5607  89.5222 14.98323093 69880,6950.214,96.107,574.084,570.074,0.0
55751.0,STARLINK-5577,PAYLOAD,2024-06-06 03:57:07,14.98334934,0.0002825,70.0012,62.0603,272.3221,87.7614,6.2075e-05,6.48e-06,0.0,0 STARLINK-5577,1 55751U 23028L   24158.16467499  .00000648  00000-0  62075-4 0  9996,2 55751  70.0012  62.0603 0002825 272.3221  87.7614 14.98334934 69947,6950.178,96.107,574.006,570.079,0.0
55751.0,STARLINK-5577,PAYLOAD,2024-06-06 10:21:40,14.98334427,0.0002829,70.0011,61.3872,270.8606,89.2229,5.6396e-06,-2.6e-07,0.0,0 STARLINK-5577,1 55751U 23028L   24158.43171611 -.00000026  00000-0  56396-5 0  9995,2 55751  70.0011  61.3872 0002829 270.8606  89.2229 14.98334427 69980,6950.179,96.107,574.01,570.078,0.0
55751.0,STARLINK-5577,PAYLOAD,2024-06-07 16:48:13,14.9832748,0.0002798,70.0013,58.1892,275.9126,84.1715,1.789e-05,1.2e-06,0.0,0 STARLINK-5577,1 55751U 23028L   24159.70016109  .00000120  00000-0  17890-4 0  9995,2 55751  70.0013  58.1892 0002798 275.9126  84.1715 14.98327480 70174,6950.201,96.107,574.01,570.121,0.0
55751.0,STARLINK-5577,PAYLOAD,2024-06-07 23:12:45,14.98320717,0.0002523,70.0014,57.5161,268.4382,91.6488,0.00035404,4.133e-05,0.0,0 STARLINK-5577,1 55751U 23028L   24159.96719842  .00004133  00000-0  35404-3 0  9995,2 55751  70.0014  57.5161 0002523 268.4382  91.6488 14.98320717 70215,6950.222,96.108,573.84,570.333,0.0
55751.0,STARLINK-5577,PAYLOAD,2024-06-08 10:25:42,14.98328761,0.0002635,70.0011,56.3383,270.6809,89.4048,-3.2159e-05,-4.77e-06,0.0,0 STARLINK-5577,1 55751U 23028L   24160.43452117 -.00000477  00000-0 -32159-4 0  9992,2 55751  70.0011  56.3383 0002635 270.6809  89.4048 14.98328761 70289,6950.197,96.107,573.893,570.23,0.0
55751.0,STARLINK-5577,PAYLOAD,2024-06-08 16:50:15,14.98326986,0.000268,70.0022,55.6631,275.3193,84.766,-2.4941e-05,-3.9e-06,0.0,0 STARLINK-5577,1 55751U 23028L   24160.70156275 -.00000390  00000-0 -24941-4 0  9992,2 55751  70.0022  55.6631 0002680 275.3193  84.7660 14.98326986 70327,6950.202,96.107,573.93,570.205,0.0
55751.0,STARLINK-5577,PAYLOAD,2024-06-08 23:14:46,14.98326348,0.0002879,70.0005,54.9924,270.6279,89.455,6.9623e-05,7.38e-06,0.0,0 STARLINK-5577,1 55751U 23028L   24160.96859932  .00000738  00000-0  69623-4 0  9990,2 55751  70.0005  54.9924 0002879 270.6279  89.4550 14.98326348 70364,6950.204,96.107,574.07,570.068,0.0
55751.0,STARLINK-5577,PAYLOAD,2024-06-09 02:27:02,14.98329753,0.0002799,70.0005,54.6557,270.9875,89.0963,0.0001069,1.183e-05,0.0,0 STARLINK-5577,1 55751U 23028L   24161.10211683  .00001183  00000-0  10690-3 0  9996,2 55751  70.0005  54.6557 0002799 270.9875  89.0963 14.98329753 70388,6950.194,96.107,574.004,570.113,0.0
55751.0,STARLINK-5577,PAYLOAD,2024-06-09 21:40:39,14.98328143,0.0002675,70.0011,52.6359,267.789,92.2963,6.8274e-05,7.22e-06,0.0,0 STARLINK-5577,1 55751U 23028L   24161.90324056  .00000722  00000-0  68274-4 0  9993,2 55751  70.0011  52.6359 0002675 267.7890  92.2963 14.98328143 70509,6950.199,96.107,573.923,570.204,0.0
55751.0,STARLINK-5577,PAYLOAD,2024-06-10 02:29:04,14.98331069,0.000291,70.0006,52.1308,270.8684,89.2142,6.513e-05,6.84e-06,0.0,0 STARLINK-5577,1 55751U 23028L   24162.10351887  .00000684  00000-0  65130-4 0  9993,2 55751  70.0006  52.1308 0002910 270.8684  89.2142 14.98331069 70539,6950.19,96.107,574.077,570.032,0.0
55751.0,STARLINK-5577,PAYLOAD,2024-06-10 10:29:44,14.9832957,0.0003088,70.0006,51.2863,258.6643,101.4169,2.7542e-05,2.36e-06,0.0,0 STARLINK-5577,1 55751U 23028L   24162.43731931  .00000236  00000-0  27542-4 0  9999,2 55751  70.0006  51.2863 0003088 258.6643 101.4169 14.98329570 70586,6950.194,96.107,574.205,569.913,0.0
55751.0,STARLINK-5577,PAYLOAD,2024-06-10 23:18:48,14.98334232,0.0002939,70.0005,49.9412,269.4248,90.6574,0.00011124,1.235e-05,0.0,0 STARLINK-5577,1 55751U 23028L   24162.97139614  .00001235  00000-0  11124-3 0  9996,2 55751  70.0005  49.9412 0002939 269.4248  90.6574 14.98334232 70663,6950.18,96.107,574.087,570.002,0.0
55751.0,STARLINK-5577,PAYLOAD,2024-06-11 02:31:04,14.98333519,0.0003012,70.0003,49.6048,269.2198,90.8616,0.00016144,1.834e-05,0.0,0 STARLINK-5577,1 55751U 23028L   24163.10491544  .00001834  00000-0  16144-3 0  9997,2 55751  70.0003  49.6048 0003012 269.2198  90.8616 14.98333519 70686,6950.182,96.107,574.14,569.954,0.0
55751.0,STARLINK-5577,PAYLOAD,2024-06-12 02:33:05,14.98338911,0.0002946,70.0004,47.0798,272.6165,87.4657,0.00014747,1.667e-05,0.0,0 STARLINK-5577,1 55751U 23028L   24164.10631039  .00001667  00000-0  14747-3 0  9994,2 55751  70.0004  47.0798 0002946 272.6165  87.4657 14.98338911 70833,6950.165,96.106,574.078,569.983,0.0
55751.0,STARLINK-5577,PAYLOAD,2024-06-12 08:57:37,14.9833324,0.000293,70.0003,46.4065,273.0716,87.0107,6.1219e-05,6.38e-06,0.0,0 STARLINK-5577,1 55751U 23028L   24164.37335526  .00000638  00000-0  61219-4 0  9999,2 55751  70.0003  46.4065 0002930 273.0716  87.0107 14.98333240 70872,6950.183,96.107,574.084,570.011,0.0
55751.0,STARLINK-5577,PAYLOAD,2024-06-12 20:10:33,14.98346353,0.0002951,70.0002,45.2245,278.5359,81.5466,4.7581e-05,4.75e-06,0.0,0 STARLINK-5577,1 55751U 23028L   24164.84066376  .00000475  00000-0  47581-4 0  9990,2 55751  70.0002  45.2245 0002951 278.5359  81.5466 14.98346353 70948,6950.142,96.106,574.058,569.956,0.0
55751.0,STARLINK-5577,PAYLOAD,2024-06-12 21:46:41,14.98342938,0.000324,69.9999,45.0575,275.7588,84.3202,0.00015816,1.795e-05,0.0,0 STARLINK-5577,1 55751U 23028L   24164.90742251  .00001795  00000-0  15816-3 0  9991,2 55751  69.9999  45.0575 0003240 275.7588  84.3202 14.98342938 70954,6950.153,96.106,574.27,569.766,0.0
55751.0,STARLINK-5577,PAYLOAD,2024-06-13 02:35:04,14.98358623,0.000309,70.0001,44.5517,284.225,75.8566,0.00030632,3.567e-05,0.0,0 STARLINK-5577,1 55751U 23028L   24165.10768758  .00003567  00000-0  30632-3 0  9996,2 55751  70.0001  44.5517 0003090 284.2250  75.8566 14.98358623 70984,6950.104,96.105,574.117,569.822,0.0
55751.0,STARLINK-5577,PAYLOAD,2024-06-13 08:59:35,14.98391547,0.0002673,70.0024,43.8773,292.7395,67.3481,-0.00075873,-9.148e-05,0.0,0 STARLINK-5577,1 55751U 23028L   24165.37471919 -.00009148  00000-0 -75873-3 0  9994,2 55751  70.0024  43.8773 0002673 292.7395  67.3481 14.98391547 71025,6950.003,96.103,573.725,570.01,0.0
55751.0,STARLINK-5577,PAYLOAD,2024-06-13 15:24:09,14.98345154,0.0002165,69.9996,43.2074,279.0499,81.0415,9.1597e-05,1.001e-05,0.0,0 STARLINK-5577,1 55751U 23028L   24165.64177808  .00001001  00000-0  91597-4 0  9994,2 55751  69.9996  43.2074 0002165 279.0499  81.0415 14.98345154 71064,6950.146,96.106,573.516,570.506,0.0
55751.0,STARLINK-5577,PAYLOAD,2024-06-13 21:48:43,14.98324356,0.000316,69.9999,42.5347,270.0441,90.0356,-0.0001398,-1.76e-05,0.0,0 STARLINK-5577,1 55751U 23028L   24165.90883343 -.00001760  00000-0 -13980-3 0  9994,2 55751  69.9999  42.5347 0003160 270.0441  90.0356 14.98324356 71106,6950.21,96.107,574.272,569.879,0.0
55751.0,STARLINK-5577,PAYLOAD,2024-06-14 09:01:39,14.98327881,0.0003128,70.0,41.3573,267.6172,92.4629,-0.00013699,-1.727e-05,0.0,0 STARLINK-5577,1 55751U 23028L   24166.37615090 -.00001727  00000-0 -13699-3 0  9998,2 55751  70.0000  41.3573 0003128 267.6172  92.4629 14.98327881 71179,6950.199,96.107,574.238,569.89,0.0
